start=new Date('2022-01-21T00:00:00.000Z').valueOf();
sats=[{"PERIOD":"93.479","TIME_SYSTEM":"UTC","SEMIMAJOR_AXIS":"6822.901","COUNTRY_CODE":"US","RA_OF_ASC_NODE":"88.1309","OBJECT_TYPE":"PAYLOAD","REV_AT_EPOCH":"361","FILE":"3278533","LAUNCH_DATE":"2021-12-02","RCS_SIZE":"LARGE","ARG_OF_PERICENTER":"12.6833","CENTER_NAME":"EARTH","BSTAR":"-0.00144020000000","GP_ID":"194261804","MEAN_MOTION_DOT":"-0.00059173","MEAN_MOTION":"15.40455395","TLE_LINE1":"1 49752U 21115AE  22020.58334491 -.00059173  00000-0 -14402-2 0  9990","CLASSIFICATION_TYPE":"U","TLE_LINE2":"2 49752  53.2164  88.1309 0003240  12.6833 185.5999 15.40455395  3618","MEAN_ELEMENT_THEORY":"SGP4","SITE":"AFETR","INCLINATION":"53.2164","PERIAPSIS":"442.556","NORAD_CAT_ID":"49752","ECCENTRICITY":"0.00032400","DECAY_DATE":null,"EPOCH":"2022-01-20T14:00:01.000224","APOAPSIS":"446.977","OBJECT_NAME":"STARLINK-3209","EPHEMERIS_TYPE":"0","MEAN_ANOMALY":"185.5999","REF_FRAME":"TEME","OBJECT_ID":"2021-115AE","MEAN_MOTION_DDOT":"0.0000000000000","ELEMENT_SET_NO":"999"},{"ECCENTRICITY":"0.00027530","NORAD_CAT_ID":"49753","EPOCH":"2022-01-20T22:00:00.999936","DECAY_DATE":null,"APOAPSIS":"446.871","REF_FRAME":"TEME","MEAN_ANOMALY":"231.0592","MEAN_MOTION_DDOT":"0.0000000000000","OBJECT_ID":"2021-115AF","ELEMENT_SET_NO":"999","OBJECT_NAME":"STARLINK-3200","EPHEMERIS_TYPE":"0","RA_OF_ASC_NODE":"86.5537","OBJECT_TYPE":"PAYLOAD","FILE":"3278767","REV_AT_EPOCH":"880","ARG_OF_PERICENTER":"19.9993","RCS_SIZE":"LARGE","LAUNCH_DATE":"2021-12-02","CENTER_NAME":"EARTH","TIME_SYSTEM":"UTC","PERIOD":"93.483","SEMIMAJOR_AXIS":"6823.127","COUNTRY_CODE":"US","MEAN_MOTION":"15.40378874","TLE_LINE1":"1 49753U 21115AF  22020.91667824 -.00010263  00000-0 -24070-3 0  9997","CLASSIFICATION_TYPE":"U","TLE_LINE2":"2 49753  53.2166  86.5537 0002753  19.9993 231.0592 15.40378874  8809","MEAN_ELEMENT_THEORY":"SGP4","PERIAPSIS":"443.114","SITE":"AFETR","INCLINATION":"53.2166","BSTAR":"-0.00024070000000","GP_ID":"194269888","MEAN_MOTION_DOT":"-0.00010263"},{"SEMIMAJOR_AXIS":"6822.911","COUNTRY_CODE":"US","PERIOD":"93.479","TIME_SYSTEM":"UTC","LAUNCH_DATE":"2021-12-02","RCS_SIZE":"LARGE","ARG_OF_PERICENTER":"14.5126","CENTER_NAME":"EARTH","RA_OF_ASC_NODE":"88.1346","OBJECT_TYPE":"PAYLOAD","REV_AT_EPOCH":"361","FILE":"3278533","MEAN_MOTION_DOT":"-0.00055040","BSTAR":"-0.00133840000000","GP_ID":"194262811","TLE_LINE2":"2 49754  53.2163  88.1346 0003014  14.5126 181.6306 15.40452030  3617","MEAN_ELEMENT_THEORY":"SGP4","CLASSIFICATION_TYPE":"U","INCLINATION":"53.2163","SITE":"AFETR","PERIAPSIS":"442.720","MEAN_MOTION":"15.40452030","TLE_LINE1":"1 49754U 21115AG  22020.58334491 -.00055040  00000-0 -13384-2 0  9999","APOAPSIS":"446.833","NORAD_CAT_ID":"49754","ECCENTRICITY":"0.00030140","DECAY_DATE":null,"EPOCH":"2022-01-20T14:00:01.000224","OBJECT_NAME":"STARLINK-3193","EPHEMERIS_TYPE":"0","OBJECT_ID":"2021-115AG","MEAN_MOTION_DDOT":"0.0000000000000","ELEMENT_SET_NO":"999","MEAN_ANOMALY":"181.6306","REF_FRAME":"TEME"},{"GP_ID":"194262059","BSTAR":"-0.00087982000000","MEAN_MOTION_DOT":"-0.00036402","TLE_LINE1":"1 49755U 21115AH  22020.58334491 -.00036402  00000-0 -87982-3 0  9997","MEAN_MOTION":"15.40448216","INCLINATION":"53.2146","SITE":"AFETR","PERIAPSIS":"442.904","MEAN_ELEMENT_THEORY":"SGP4","TLE_LINE2":"2 49755  53.2146  88.1239 0002761  13.2560 186.0777 15.40448216  3618","CLASSIFICATION_TYPE":"U","PERIOD":"93.479","TIME_SYSTEM":"UTC","COUNTRY_CODE":"US","SEMIMAJOR_AXIS":"6822.923","REV_AT_EPOCH":"361","FILE":"3278533","RA_OF_ASC_NODE":"88.1239","OBJECT_TYPE":"PAYLOAD","CENTER_NAME":"EARTH","LAUNCH_DATE":"2021-12-02","ARG_OF_PERICENTER":"13.2560","RCS_SIZE":"LARGE","EPHEMERIS_TYPE":"0","OBJECT_NAME":"STARLINK-3210","MEAN_ANOMALY":"186.0777","REF_FRAME":"TEME","ELEMENT_SET_NO":"999","OBJECT_ID":"2021-115AH","MEAN_MOTION_DDOT":"0.0000000000000","DECAY_DATE":null,"EPOCH":"2022-01-20T14:00:01.000224","NORAD_CAT_ID":"49755","ECCENTRICITY":"0.00027610","APOAPSIS":"446.671"},{"ECCENTRICITY":"0.00034640","NORAD_CAT_ID":"49756","EPOCH":"2022-01-20T14:00:01.000224","DECAY_DATE":null,"APOAPSIS":"447.165","OBJECT_NAME":"STARLINK-3207","EPHEMERIS_TYPE":"0","REF_FRAME":"TEME","MEAN_ANOMALY":"184.4672","MEAN_MOTION_DDOT":"0.0000000000000","OBJECT_ID":"2021-115AJ","ELEMENT_SET_NO":"999","TIME_SYSTEM":"UTC","PERIOD":"93.480","SEMIMAJOR_AXIS":"6822.936","COUNTRY_CODE":"US","RA_OF_ASC_NODE":"88.1386","OBJECT_TYPE":"PAYLOAD","FILE":"3278533","REV_AT_EPOCH":"361","RCS_SIZE":"LARGE","ARG_OF_PERICENTER":"9.6492","LAUNCH_DATE":"2021-12-02","CENTER_NAME":"EARTH","GP_ID":"194262305","BSTAR":"-0.00175960000000","MEAN_MOTION_DOT":"-0.00072060","MEAN_MOTION":"15.40443531","TLE_LINE1":"1 49756U 21115AJ  22020.58334491 -.00072060  00000-0 -17596-2 0  9991","TLE_LINE2":"2 49756  53.2163  88.1386 0003464   9.6492 184.4672 15.40443531  3616","CLASSIFICATION_TYPE":"U","MEAN_ELEMENT_THEORY":"SGP4","PERIAPSIS":"442.438","SITE":"AFETR","INCLINATION":"53.2163"},{"ECCENTRICITY":"0.00030700","NORAD_CAT_ID":"49757","EPOCH":"2022-01-20T14:00:01.000224","DECAY_DATE":null,"APOAPSIS":"446.866","OBJECT_NAME":"STARLINK-3197","EPHEMERIS_TYPE":"0","REF_FRAME":"TEME","MEAN_ANOMALY":"185.4357","MEAN_MOTION_DDOT":"0.0000000000000","OBJECT_ID":"2021-115AK","ELEMENT_SET_NO":"999","TIME_SYSTEM":"UTC","PERIOD":"93.479","SEMIMAJOR_AXIS":"6822.906","COUNTRY_CODE":"US","RA_OF_ASC_NODE":"88.1342","OBJECT_TYPE":"PAYLOAD","FILE":"3278533","REV_AT_EPOCH":"361","RCS_SIZE":"LARGE","ARG_OF_PERICENTER":"11.8488","LAUNCH_DATE":"2021-12-02","CENTER_NAME":"EARTH","GP_ID":"194263060","BSTAR":"-0.00195840000000","MEAN_MOTION_DOT":"-0.00080095","MEAN_MOTION":"15.40453783","TLE_LINE1":"1 49757U 21115AK  22020.58334491 -.00080095  00000-0 -19584-2 0  9998","TLE_LINE2":"2 49757  53.2168  88.1342 0003070  11.8488 185.4357 15.40453783  3618","MEAN_ELEMENT_THEORY":"SGP4","CLASSIFICATION_TYPE":"U","PERIAPSIS":"442.676","SITE":"AFETR","INCLINATION":"53.2168"},{"APOAPSIS":"446.892","ECCENTRICITY":"0.00031310","NORAD_CAT_ID":"49758","EPOCH":"2022-01-20T14:00:01.000224","DECAY_DATE":null,"OBJECT_NAME":"STARLINK-3194","EPHEMERIS_TYPE":"0","MEAN_MOTION_DDOT":"0.0000000000000","OBJECT_ID":"2021-115AL","ELEMENT_SET_NO":"999","REF_FRAME":"TEME","MEAN_ANOMALY":"179.6408","SEMIMAJOR_AXIS":"6822.891","COUNTRY_CODE":"US","TIME_SYSTEM":"UTC","PERIOD":"93.479","ARG_OF_PERICENTER":"12.3134","RCS_SIZE":"LARGE","LAUNCH_DATE":"2021-12-02","CENTER_NAME":"EARTH","OBJECT_TYPE":"PAYLOAD","RA_OF_ASC_NODE":"88.1423","FILE":"3278533","REV_AT_EPOCH":"361","MEAN_MOTION_DOT":"-0.00055451","BSTAR":"-0.00134820000000","GP_ID":"194263312","CLASSIFICATION_TYPE":"U","TLE_LINE2":"2 49758  53.2162  88.1423 0003131  12.3134 179.6408 15.40458844  3610","MEAN_ELEMENT_THEORY":"SGP4","PERIAPSIS":"442.620","SITE":"AFETR","INCLINATION":"53.2162","MEAN_MOTION":"15.40458844","TLE_LINE1":"1 49758U 21115AL  22020.58334491 -.00055451  00000-0 -13482-2 0  9998"},{"TLE_LINE1":"1 49759U 21115AM  22020.91667824  .00009630  00000-0  24429-3 0  9995","MEAN_MOTION":"15.40383329","PERIAPSIS":"443.170","SITE":"AFETR","INCLINATION":"53.2166","MEAN_ELEMENT_THEORY":"SGP4","TLE_LINE2":"2 49759  53.2166  86.5660 0002651  13.1591 231.5106 15.40383329  8806","CLASSIFICATION_TYPE":"U","GP_ID":"194269880","BSTAR":"0.00024429000000","MEAN_MOTION_DOT":"0.00009630","FILE":"3278767","REV_AT_EPOCH":"880","RA_OF_ASC_NODE":"86.5660","OBJECT_TYPE":"PAYLOAD","CENTER_NAME":"EARTH","RCS_SIZE":"LARGE","ARG_OF_PERICENTER":"13.1591","LAUNCH_DATE":"2021-12-02","TIME_SYSTEM":"UTC","PERIOD":"93.483","COUNTRY_CODE":"US","SEMIMAJOR_AXIS":"6823.114","REF_FRAME":"TEME","MEAN_ANOMALY":"231.5106","ELEMENT_SET_NO":"999","MEAN_MOTION_DDOT":"0.0000000000000","OBJECT_ID":"2021-115AM","EPHEMERIS_TYPE":"0","OBJECT_NAME":"STARLINK-3204","EPOCH":"2022-01-20T22:00:00.999936","DECAY_DATE":null,"ECCENTRICITY":"0.00026510","NORAD_CAT_ID":"49759","APOAPSIS":"446.788"},{"APOAPSIS":"446.700","EPOCH":"2022-01-20T14:00:01.000224","DECAY_DATE":null,"ECCENTRICITY":"0.00027540","NORAD_CAT_ID":"49760","EPHEMERIS_TYPE":"0","OBJECT_NAME":"STARLINK-3199","ELEMENT_SET_NO":"999","MEAN_MOTION_DDOT":"0.0000000000000","OBJECT_ID":"2021-115AN","REF_FRAME":"TEME","MEAN_ANOMALY":"174.8180","COUNTRY_CODE":"US","SEMIMAJOR_AXIS":"6822.956","TIME_SYSTEM":"UTC","PERIOD":"93.480","CENTER_NAME":"EARTH","ARG_OF_PERICENTER":"15.0899","RCS_SIZE":"MEDIUM","LAUNCH_DATE":"2021-12-02","FILE":"3278533","REV_AT_EPOCH":"361","OBJECT_TYPE":"PAYLOAD","RA_OF_ASC_NODE":"88.1458","MEAN_MOTION_DOT":"-0.00060456","GP_ID":"194261805","BSTAR":"-0.00147290000000","PERIAPSIS":"442.942","SITE":"AFETR","INCLINATION":"53.2161","CLASSIFICATION_TYPE":"U","TLE_LINE2":"2 49760  53.2161  88.1458 0002754  15.0899 174.8180 15.40436868  3614","MEAN_ELEMENT_THEORY":"SGP4","TLE_LINE1":"1 49760U 21115AN  22020.58334491 -.00060456  00000-0 -14729-2 0  9997","MEAN_MOTION":"15.40436868"},{"PERIAPSIS":"442.697","INCLINATION":"53.2166","SITE":"AFETR","MEAN_ELEMENT_THEORY":"SGP4","TLE_LINE2":"2 49761  53.2166  88.1420 0003040  10.6608 182.3583 15.40453802  3615","CLASSIFICATION_TYPE":"U","TLE_LINE1":"1 49761U 21115AP  22020.58334491 -.00056280  00000-0 -13689-2 0  9992","MEAN_MOTION":"15.40453802","MEAN_MOTION_DOT":"-0.00056280","GP_ID":"194262560","BSTAR":"-0.00136890000000","CENTER_NAME":"EARTH","RCS_SIZE":"LARGE","ARG_OF_PERICENTER":"10.6608","LAUNCH_DATE":"2021-12-02","FILE":"3278533","REV_AT_EPOCH":"361","RA_OF_ASC_NODE":"88.1420","OBJECT_TYPE":"PAYLOAD","COUNTRY_CODE":"US","SEMIMAJOR_AXIS":"6822.906","TIME_SYSTEM":"UTC","PERIOD":"93.479","ELEMENT_SET_NO":"999","MEAN_MOTION_DDOT":"0.0000000000000","OBJECT_ID":"2021-115AP","REF_FRAME":"TEME","MEAN_ANOMALY":"182.3583","EPHEMERIS_TYPE":"0","OBJECT_NAME":"STARLINK-3203","APOAPSIS":"446.845","EPOCH":"2022-01-20T14:00:01.000224","DECAY_DATE":null,"ECCENTRICITY":"0.00030400","NORAD_CAT_ID":"49761"}];
